{"type": "FeatureCollection", "features": [ {"type": "Feature", "properties": {"norad_id": 43108, "name": "BEIDOU-3 M8 (C28)", "group": "beidou", "lat": 29.829036564823944, "lon": 104.3294272817186, "alt_km": 21533.60500129409, "timestamp": "2025-12-21T05:44:51.851121+00:00", "meta": {"OBJECT_NAME": "BEIDOU-3 M8 (C28)", "OBJECT_ID": "2018-003B", "EPOCH": "2025-12-19T22:52:37.832160", "MEAN_MOTION": 1.8623113, "ECCENTRICITY": 0.00046027, "INCLINATION": 54.4832, "RA_OF_ASC_NODE": 308.5466, "ARG_OF_PERICENTER": 277.9928, "MEAN_ANOMALY": 81.9459, "EPHEMERIS_TYPE": 0, "CLASSIFICATION_TYPE": "U", "NORAD_CAT_ID": 43108, "ELEMENT_SET_NO": 999, "REV_AT_EPOCH": 5402, "BSTAR": 0, "MEAN_MOTION_DOT": -7.3e-07, "MEAN_MOTION_DDOT": 0}, "tle": {"line1": "1 43108U 18003B   25353.95321565 -.00000073  00000+0  00000+0 0  9991", "line2": "2 43108  54.4832 308.5466 0004602 277.9928  81.9459  1.86231130 54024"}}, "geometry": {"type": "Point", "coordinates": [104.3294272817186, 29.829036564823944]}}, {"type": "Feature", "properties": {"norad_id": 43207, "name": "BEIDOU-3 M4 (C22)", "group": "beidou", "lat": -21.499167439165618, "lon": -95.85488342719756, "alt_km": 21541.729291153173, "timestamp": "2025-12-21T05:44:51.851132+00:00", "meta": {"OBJECT_NAME": "BEIDOU-3 M4 (C22)", "OBJECT_ID": "2018-018A", "EPOCH": "2025-12-20T09:29:07.105632", "MEAN_MOTION": 1.86231247, "ECCENTRICITY": 0.0004167, "INCLINATION": 56.4917, "RA_OF_ASC_NODE": 69.0512, "ARG_OF_PERICENTER": 3.4046, "MEAN_ANOMALY": 356.639, "EPHEMERIS_TYPE": 0, "CLASSIFICATION_TYPE": "U", "NORAD_CAT_ID": 43207, "ELEMENT_SET_NO": 999, "REV_AT_EPOCH": 5341, "BSTAR": 0, "MEAN_MOTION_DOT": -4.3e-07, "MEAN_MOTION_DDOT": 0}, "tle": {"line1": "1 43207U 18018A   25354.39522113 -.00000043  00000+0  00000+0 0  9995", "line2": "2 43207  56.4917  69.0512 0004167   3.4046 356.6390  1.86231247 53417"}}, "geometry": {"type": "Point", "coordinates": [-95.85488342719756, -21.499167439165618]}}, {"type": "Feature", "properties": {"norad_id": 43208, "name": "BEIDOU-3 M3 (C21)", "group": "beidou", "lat": 15.428461773939627, "lon": -121.47360614009212, "alt_km": 21543.615566218898, "timestamp": "2025-12-21T05:44:51.851143+00:00", "meta": {"OBJECT_NAME": "BEIDOU-3 M3 (C21)", "OBJECT_ID": "2018-018B", "EPOCH": "2025-12-19T09:18:26.987040", "MEAN_MOTION": 1.8623146, "ECCENTRICITY": 0.0007021, "INCLINATION": 56.4904, "RA_OF_ASC_NODE": 69.0885, "ARG_OF_PERICENTER": 313.7803, "MEAN_ANOMALY": 46.1968, "EPHEMERIS_TYPE": 0, "CLASSIFICATION_TYPE": "U", "NORAD_CAT_ID": 43208, "ELEMENT_SET_NO": 999, "REV_AT_EPOCH": 5339, "BSTAR": 0, "MEAN_MOTION_DOT": -5.3e-07, "MEAN_MOTION_DDOT": 0}, "tle": {"line1": "1 43208U 18018B   25353.38781235 -.00000053  00000+0  00000+0 0  9997", "line2": "2 43208  56.4904  69.0885 0007021 313.7803  46.1968  1.86231460 53393"}}, "geometry": {"type": "Point", "coordinates": [-121.47360614009212, 15.428461773939627]}}, {"type": "Feature", "properties": {"norad_id": 43245, "name": "BEIDOU-3 M9 (C29)", "group": "beidou", "lat": 13.315776245255714, "lon": -44.084668541459735, "alt_km": 21526.473855504428, "timestamp": "2025-12-21T05:44:51.851154+00:00", "meta": {"OBJECT_NAME": "BEIDOU-3 M9 (C29)", "OBJECT_ID": "2018-029A", "EPOCH": "2025-12-19T14:29:50.131680", "MEAN_MOTION": 1.86228397, "ECCENTRICITY": 0.00015252, "INCLINATION": 54.3596, "RA_OF_ASC_NODE": 306.2287, "ARG_OF_PERICENTER": 290.8433, "MEAN_ANOMALY": 69.1316, "EPHEMERIS_TYPE": 0, "CLASSIFICATION_TYPE": "U", "NORAD_CAT_ID": 43245, "ELEMENT_SET_NO": 999, "REV_AT_EPOCH": 5255, "BSTAR": 0, "MEAN_MOTION_DOT": -7.4e-07, "MEAN_MOTION_DDOT": 0}, "tle": {"line1": "1 43245U 18029A   25353.60405245 -.00000074  00000+0  00000+0 0  9992", "line2": "2 43245  54.3596 306.2287 0001525 290.8433  69.1316  1.86228397 52551"}}, "geometry": {"type": "Point", "coordinates": [-44.084668541459735, 13.315776245255714]}}, {"type": "Feature", "properties": {"norad_id": 43246, "name": "BEIDOU-3 M10 (C30)", "group": "beidou", "lat": 44.70835837650662, "lon": -8.626036274604235, "alt_km": 21516.32989923004, "timestamp": "2025-12-21T05:44:51.851178+00:00", "meta": {"OBJECT_NAME": "BEIDOU-3 M10 (C30)", "OBJECT_ID": "2018-029B", "EPOCH": "2025-12-20T01:49:46.851744", "MEAN_MOTION": 1.86229182, "ECCENTRICITY": 0.00042418, "INCLINATION": 54.356, "RA_OF_ASC_NODE": 306.2386, "ARG_OF_PERICENTER": 3.4474, "MEAN_ANOMALY": 356.548, "EPHEMERIS_TYPE": 0, "CLASSIFICATION_TYPE": "U", "NORAD_CAT_ID": 43246, "ELEMENT_SET_NO": 999, "REV_AT_EPOCH": 5254, "BSTAR": 0, "MEAN_MOTION_DOT": -7e-07, "MEAN_MOTION_DDOT": 0}, "tle": {"line1": "1 43246U 18029B   25354.07623671 -.00000070  00000+0  00000+0 0  9996", "line2": "2 43246  54.3560 306.2386 0004241   3.4474 356.5480  1.86229182 52541"}}, "geometry": {"type": "Point", "coordinates": [-8.626036274604235, 44.70835837650662]}}, {"type": "Feature", "properties": {"norad_id": 43539, "name": "BEIDOU-2 IGSO-7 (C16)", "group": "beidou", "lat": 44.602365682651524, "lon": -58.853443757683166, "alt_km": 35943.10352252354, "timestamp": "2025-12-21T05:44:51.851191+00:00", "meta": {"OBJECT_NAME": "BEIDOU-2 IGSO-7 (C16)", "OBJECT_ID": "2018-057A", "EPOCH": "2025-12-15T07:47:07.120608", "MEAN_MOTION": 1.00256546, "ECCENTRICITY": 0.00926218, "INCLINATION": 55.1766, "RA_OF_ASC_NODE": 164.6485, "ARG_OF_PERICENTER": 235.2644, "MEAN_ANOMALY": 271.8458, "EPHEMERIS_TYPE": 0, "CLASSIFICATION_TYPE": "U", "NORAD_CAT_ID": 43539, "ELEMENT_SET_NO": 999, "REV_AT_EPOCH": 2728, "BSTAR": 0, "MEAN_MOTION_DOT": -2.3e-07, "MEAN_MOTION_DDOT": 0}, "tle": {"line1": "1 43539U 18057A   25349.32438797 -.00000023  00000+0  00000+0 0  9995", "line2": "2 43539  55.1766 164.6485 0092621 235.2644 271.8458  1.00256546 27289"}}, "geometry": {"type": "Point", "coordinates": [-58.853443757683166, 44.602365682651524]}}, {"type": "Feature", "properties": {"norad_id": 43581, "name": "BEIDOU-3 M5 (C23)", "group": "beidou", "lat": -54.048889299870446, "lon": 97.16529506168838, "alt_km": 21534.081775233353, "timestamp": "2025-12-21T05:44:51.851205+00:00", "meta": {"OBJECT_NAME": "BEIDOU-3 M5 (C23)", "OBJECT_ID": "2018-062A", "EPOCH": "2025-12-20T07:13:15.600000", "MEAN_MOTION": 1.86228934, "ECCENTRICITY": 0.0001969, "INCLINATION": 54.0899, "RA_OF_ASC_NODE": 188.386, "ARG_OF_PERICENTER": 359.6013, "MEAN_ANOMALY": 0.4548, "EPHEMERIS_TYPE": 0, "CLASSIFICATION_TYPE": "U", "NORAD_CAT_ID": 43581, "ELEMENT_SET_NO": 999, "REV_AT_EPOCH": 5030, "BSTAR": 0, "MEAN_MOTION_DOT": 9.7e-07, "MEAN_MOTION_DDOT": 0}, "tle": {"line1": "1 43581U 18062A   25354.30087500  .00000097  00000+0  00000+0 0  9994", "line2": "2 43581  54.0899 188.3860 0001969 359.6013   0.4548  1.86228934 50306"}}, "geometry": {"type": "Point", "coordinates": [97.16529506168838, -54.048889299870446]}}, {"type": "Feature", "properties": {"norad_id": 43582, "name": "BEIDOU-3 M6 (C24)", "group": "beidou", "lat": 0.9157367237765018, "lon": -170.98754735994166, "alt_km": 21513.30027074706, "timestamp": "2025-12-21T05:44:51.851217+00:00", "meta": {"OBJECT_NAME": "BEIDOU-3 M6 (C24)", "OBJECT_ID": "2018-062B", "EPOCH": "2025-12-20T03:56:01.701312", "MEAN_MOTION": 1.86229954, "ECCENTRICITY": 0.00078337, "INCLINATION": 54.0893, "RA_OF_ASC_NODE": 188.3797, "ARG_OF_PERICENTER": 47.8799, "MEAN_ANOMALY": 312.2437, "EPHEMERIS_TYPE": 0, "CLASSIFICATION_TYPE": "U", "NORAD_CAT_ID": 43582, "ELEMENT_SET_NO": 999, "REV_AT_EPOCH": 5030, "BSTAR": 0, "MEAN_MOTION_DOT": 9.8e-07, "MEAN_MOTION_DDOT": 0}, "tle": {"line1": "1 43582U 18062B   25354.16390858  .00000098  00000+0  00000+0 0  9993", "line2": "2 43582  54.0893 188.3797 0007833  47.8799 312.2437  1.86229954 50307"}}, "geometry": {"type": "Point", "coordinates": [-170.98754735994166, 0.9157367237765018]}}, {"type": "Feature", "properties": {"norad_id": 43602, "name": "BEIDOU-3 M12 (C26)", "group": "beidou", "lat": 33.43695661486411, "lon": -144.42220305675096, "alt_km": 21498.443882256273, "timestamp": "2025-12-21T05:44:51.851228+00:00", "meta": {"OBJECT_NAME": "BEIDOU-3 M12 (C26)", "OBJECT_ID": "2018-067A", "EPOCH": "2025-12-19T13:33:24.239232", "MEAN_MOTION": 1.86227856, "ECCENTRICITY": 0.00092481, "INCLINATION": 54.1835, "RA_OF_ASC_NODE": 187.1314, "ARG_OF_PERICENTER": 41.3287, "MEAN_ANOMALY": 318.7989, "EPHEMERIS_TYPE": 0, "CLASSIFICATION_TYPE": "U", "NORAD_CAT_ID": 43602, "ELEMENT_SET_NO": 999, "REV_AT_EPOCH": 4977, "BSTAR": 0, "MEAN_MOTION_DOT": 1.01e-06, "MEAN_MOTION_DDOT": 0}, "tle": {"line1": "1 43602U 18067A   25353.56486388  .00000101  00000+0  00000+0 0  9993", "line2": "2 43602  54.1835 187.1314 0009248  41.3287 318.7989  1.86227856 49773"}}, "geometry": {"type": "Point", "coordinates": [-144.42220305675096, 33.43695661486411]}}, {"type": "Feature", "properties": {"norad_id": 43603, "name": "BEIDOU-3 M11 (C25)", "group": "beidou", "lat": -36.670428576975645, "lon": 154.48954794445623, "alt_km": 21531.425036591834, "timestamp": "2025-12-21T05:44:51.851239+00:00", "meta": {"OBJECT_NAME": "BEIDOU-3 M11 (C25)", "OBJECT_ID": "2018-067B", "EPOCH": "2025-12-20T05:40:20.265024", "MEAN_MOTION": 1.86227366, "ECCENTRICITY": 0.00056565, "INCLINATION": 54.1806, "RA_OF_ASC_NODE": 187.0727, "ARG_OF_PERICENTER": 37.3238, "MEAN_ANOMALY": 322.7692, "EPHEMERIS_TYPE": 0, "CLASSIFICATION_TYPE": "U", "NORAD_CAT_ID": 43603, "ELEMENT_SET_NO": 999, "REV_AT_EPOCH": 4981, "BSTAR": 0, "MEAN_MOTION_DOT": 9.7e-07, "MEAN_MOTION_DDOT": 0}, "tle": {"line1": "1 43603U 18067B   25354.23634566  .00000097  00000+0  00000+0 0  9996", "line2": "2 43603  54.1806 187.0727 0005656  37.3238 322.7692  1.86227366 49816"}}, "geometry": {"type": "Point", "coordinates": [154.48954794445623, -36.670428576975645]}}]}